{"type": "FeatureCollection", "features": [ {"type": "Feature", "properties": {"norad_id": 57401, "name": "TIANMU-1 09", "group": "weather", "lat": -30.67880036064139, "lon": -151.41464515695924, "alt_km": 490.107402260287, "timestamp": "2025-12-09T16:56:36.222917+00:00", "meta": {"OBJECT_NAME": "TIANMU-1 09", "OBJECT_ID": "2023-101C", "EPOCH": "2025-12-09T11:18:32.492160", "MEAN_MOTION": 15.28008505, "ECCENTRICITY": 0.0006817, "INCLINATION": 97.2822, "RA_OF_ASC_NODE": 32.7068, "ARG_OF_PERICENTER": 92.6391, "MEAN_ANOMALY": 267.5629, "EPHEMERIS_TYPE": 0, "CLASSIFICATION_TYPE": "U", "NORAD_CAT_ID": 57401, "ELEMENT_SET_NO": 999, "REV_AT_EPOCH": 13265, "BSTAR": 0.00040024, "MEAN_MOTION_DOT": 0.00010875, "MEAN_MOTION_DDOT": 0}, "tle": {"line1": "1 57401U 23101C   25343.47120940  .00010875  00000+0  40024-3 0  9991", "line2": "2 57401  97.2822  32.7068 0006817  92.6391 267.5629 15.28008505132655"}}, "geometry": {"type": "Point", "coordinates": [-151.41464515695924, -30.67880036064139]}}, {"type": "Feature", "properties": {"norad_id": 57402, "name": "TIANMU-1 10", "group": "weather", "lat": 22.40244215294344, "lon": 30.75768730274208, "alt_km": 479.48575056475966, "timestamp": "2025-12-09T16:56:36.222927+00:00", "meta": {"OBJECT_NAME": "TIANMU-1 10", "OBJECT_ID": "2023-101D", "EPOCH": "2025-12-09T12:07:47.133696", "MEAN_MOTION": 15.27999637, "ECCENTRICITY": 0.0008563, "INCLINATION": 97.2902, "RA_OF_ASC_NODE": 33.5865, "ARG_OF_PERICENTER": 92.7089, "MEAN_ANOMALY": 267.5131, "EPHEMERIS_TYPE": 0, "CLASSIFICATION_TYPE": "U", "NORAD_CAT_ID": 57402, "ELEMENT_SET_NO": 999, "REV_AT_EPOCH": 13265, "BSTAR": 0.00040337, "MEAN_MOTION_DOT": 0.00010962, "MEAN_MOTION_DDOT": 0}, "tle": {"line1": "1 57402U 23101D   25343.50540664  .00010962  00000+0  40337-3 0  9999", "line2": "2 57402  97.2902  33.5865 0008563  92.7089 267.5131 15.27999637132656"}}, "geometry": {"type": "Point", "coordinates": [30.75768730274208, 22.40244215294344]}}, {"type": "Feature", "properties": {"norad_id": 57490, "name": "FENGYUN 3F", "group": "weather", "lat": 21.194286921208274, "lon": 48.64095247780276, "alt_km": 825.394091871518, "timestamp": "2025-12-09T16:56:36.222944+00:00", "meta": {"OBJECT_NAME": "FENGYUN 3F", "OBJECT_ID": "2023-111A", "EPOCH": "2025-12-09T11:46:08.405184", "MEAN_MOTION": 14.19892391, "ECCENTRICITY": 6.53e-05, "INCLINATION": 98.7088, "RA_OF_ASC_NODE": 51.8362, "ARG_OF_PERICENTER": 95.7371, "MEAN_ANOMALY": 264.388, "EPHEMERIS_TYPE": 0, "CLASSIFICATION_TYPE": "U", "NORAD_CAT_ID": 57490, "ELEMENT_SET_NO": 999, "REV_AT_EPOCH": 12194, "BSTAR": 0.00010357, "MEAN_MOTION_DOT": 1.76e-06, "MEAN_MOTION_DDOT": 0}, "tle": {"line1": "1 57490U 23111A   25343.49037506  .00000176  00000+0  10357-3 0  9996", "line2": "2 57490  98.7088  51.8362 0000653  95.7371 264.3880 14.19892391121943"}}, "geometry": {"type": "Point", "coordinates": [48.64095247780276, 21.194286921208274]}}, {"type": "Feature", "properties": {"norad_id": 58584, "name": "ARKTIKA-M 2", "group": "weather", "lat": 50.402858806286865, "lon": -42.41707466815658, "alt_km": 27130.669520656815, "timestamp": "2025-12-09T16:56:36.222957+00:00", "meta": {"OBJECT_NAME": "ARKTIKA-M 2", "OBJECT_ID": "2023-198A", "EPOCH": "2025-12-08T20:10:13.977120", "MEAN_MOTION": 2.0060476, "ECCENTRICITY": 0.68646991, "INCLINATION": 63.2247, "RA_OF_ASC_NODE": 175.3152, "ARG_OF_PERICENTER": 268.1185, "MEAN_ANOMALY": 18.8267, "EPHEMERIS_TYPE": 0, "CLASSIFICATION_TYPE": "U", "NORAD_CAT_ID": 58584, "ELEMENT_SET_NO": 999, "REV_AT_EPOCH": 1450, "BSTAR": 0, "MEAN_MOTION_DOT": 1.66e-06, "MEAN_MOTION_DDOT": 0}, "tle": {"line1": "1 58584U 23198A   25342.84043955  .00000166  00000+0  00000+0 0  9998", "line2": "2 58584  63.2247 175.3152 6864699 268.1185  18.8267  2.00604760 14506"}}, "geometry": {"type": "Point", "coordinates": [-42.41707466815658, 50.402858806286865]}}, {"type": "Feature", "properties": {"norad_id": 58645, "name": "TIANMU-1 11", "group": "weather", "lat": -58.91016989245238, "lon": 171.00307207176698, "alt_km": 498.65410145128317, "timestamp": "2025-12-09T16:56:36.223508+00:00", "meta": {"OBJECT_NAME": "TIANMU-1 11", "OBJECT_ID": "2023-205A", "EPOCH": "2025-12-09T12:44:39.003072", "MEAN_MOTION": 15.24538582, "ECCENTRICITY": 0.0008184, "INCLINATION": 97.3608, "RA_OF_ASC_NODE": 3.2105, "ARG_OF_PERICENTER": 323.4917, "MEAN_ANOMALY": 36.5762, "EPHEMERIS_TYPE": 0, "CLASSIFICATION_TYPE": "U", "NORAD_CAT_ID": 58645, "ELEMENT_SET_NO": 999, "REV_AT_EPOCH": 10860, "BSTAR": 0.00038547, "MEAN_MOTION_DOT": 9.429e-05, "MEAN_MOTION_DDOT": 0}, "tle": {"line1": "1 58645U 23205A   25343.53100698  .00009429  00000+0  38547-3 0  9992", "line2": "2 58645  97.3608   3.2105 0008184 323.4917  36.5762 15.24538582108601"}}, "geometry": {"type": "Point", "coordinates": [171.00307207176698, -58.91016989245238]}}, {"type": "Feature", "properties": {"norad_id": 58646, "name": "TIANMU-1 12", "group": "weather", "lat": 81.94133497642314, "lon": -110.9040614077917, "alt_km": 488.61031409432417, "timestamp": "2025-12-09T16:56:36.223519+00:00", "meta": {"OBJECT_NAME": "TIANMU-1 12", "OBJECT_ID": "2023-205B", "EPOCH": "2025-12-09T11:48:34.327872", "MEAN_MOTION": 15.24418065, "ECCENTRICITY": 0.0006063, "INCLINATION": 97.3596, "RA_OF_ASC_NODE": 2.9788, "ARG_OF_PERICENTER": 305.9548, "MEAN_ANOMALY": 54.1127, "EPHEMERIS_TYPE": 0, "CLASSIFICATION_TYPE": "U", "NORAD_CAT_ID": 58646, "ELEMENT_SET_NO": 999, "REV_AT_EPOCH": 10858, "BSTAR": 0.00038242, "MEAN_MOTION_DOT": 9.316e-05, "MEAN_MOTION_DDOT": 0}, "tle": {"line1": "1 58646U 23205B   25343.49206398  .00009316  00000+0  38242-3 0  9999", "line2": "2 58646  97.3596   2.9788 0006063 305.9548  54.1127 15.24418065108581"}}, "geometry": {"type": "Point", "coordinates": [-110.9040614077917, 81.94133497642314]}}, {"type": "Feature", "properties": {"norad_id": 58647, "name": "TIANMU-1 13", "group": "weather", "lat": -82.52794099879107, "lon": 103.03854030707707, "alt_km": 495.6993162136223, "timestamp": "2025-12-09T16:56:36.223530+00:00", "meta": {"OBJECT_NAME": "TIANMU-1 13", "OBJECT_ID": "2023-205C", "EPOCH": "2025-12-09T12:37:00.765120", "MEAN_MOTION": 15.24462048, "ECCENTRICITY": 0.0006061, "INCLINATION": 97.3624, "RA_OF_ASC_NODE": 3.2114, "ARG_OF_PERICENTER": 282.0324, "MEAN_ANOMALY": 78.0234, "EPHEMERIS_TYPE": 0, "CLASSIFICATION_TYPE": "U", "NORAD_CAT_ID": 58647, "ELEMENT_SET_NO": 999, "REV_AT_EPOCH": 10858, "BSTAR": 0.0003864, "MEAN_MOTION_DOT": 9.426e-05, "MEAN_MOTION_DDOT": 0}, "tle": {"line1": "1 58647U 23205C   25343.52570330  .00009426  00000+0  38640-3 0  9998", "line2": "2 58647  97.3624   3.2114 0006061 282.0324  78.0234 15.24462048108580"}}, "geometry": {"type": "Point", "coordinates": [103.03854030707707, -82.52794099879107]}}, {"type": "Feature", "properties": {"norad_id": 58648, "name": "TIANMU-1 14", "group": "weather", "lat": -0.059722994019306835, "lon": 2.747705718143355, "alt_km": 494.1990211662978, "timestamp": "2025-12-09T16:56:36.223541+00:00", "meta": {"OBJECT_NAME": "TIANMU-1 14", "OBJECT_ID": "2023-205D", "EPOCH": "2025-12-09T12:13:03.366336", "MEAN_MOTION": 15.24445428, "ECCENTRICITY": 0.0006914, "INCLINATION": 97.3556, "RA_OF_ASC_NODE": 2.5467, "ARG_OF_PERICENTER": 287.19, "MEAN_ANOMALY": 72.8581, "EPHEMERIS_TYPE": 0, "CLASSIFICATION_TYPE": "U", "NORAD_CAT_ID": 58648, "ELEMENT_SET_NO": 999, "REV_AT_EPOCH": 10858, "BSTAR": 0.0003682, "MEAN_MOTION_DOT": 8.975e-05, "MEAN_MOTION_DDOT": 0}, "tle": {"line1": "1 58648U 23205D   25343.50906674  .00008975  00000+0  36820-3 0  9997", "line2": "2 58648  97.3556   2.5467 0006914 287.1900  72.8581 15.24445428108581"}}, "geometry": {"type": "Point", "coordinates": [2.747705718143355, -0.059722994019306835]}}, {"type": "Feature", "properties": {"norad_id": 58660, "name": "TIANMU-1 19", "group": "weather", "lat": -38.26927142928614, "lon": -91.16693329052762, "alt_km": 487.161707808752, "timestamp": "2025-12-09T16:56:36.223552+00:00", "meta": {"OBJECT_NAME": "TIANMU-1 19", "OBJECT_ID": "2023-208A", "EPOCH": "2025-12-09T11:16:24.448224", "MEAN_MOTION": 15.27754669, "ECCENTRICITY": 0.0004058, "INCLINATION": 97.439, "RA_OF_ASC_NODE": 94.5137, "ARG_OF_PERICENTER": 267.7594, "MEAN_ANOMALY": 92.318, "EPHEMERIS_TYPE": 0, "CLASSIFICATION_TYPE": "U", "NORAD_CAT_ID": 58660, "ELEMENT_SET_NO": 999, "REV_AT_EPOCH": 10832, "BSTAR": 0.00049591, "MEAN_MOTION_DOT": 0.00013384, "MEAN_MOTION_DDOT": 0}, "tle": {"line1": "1 58660U 23208A   25343.46972741  .00013384  00000+0  49591-3 0  9996", "line2": "2 58660  97.4390  94.5137 0004058 267.7594  92.3180 15.27754669108324"}}, "geometry": {"type": "Point", "coordinates": [-91.16693329052762, -38.26927142928614]}}, {"type": "Feature", "properties": {"norad_id": 58661, "name": "TIANMU-1 20", "group": "weather", "lat": -77.70661431517978, "lon": 131.99849239390682, "alt_km": 481.96069961164903, "timestamp": "2025-12-09T16:56:36.223566+00:00", "meta": {"OBJECT_NAME": "TIANMU-1 20", "OBJECT_ID": "2023-208B", "EPOCH": "2025-12-09T12:34:52.442976", "MEAN_MOTION": 15.28947595, "ECCENTRICITY": 0.0006321, "INCLINATION": 97.4327, "RA_OF_ASC_NODE": 95.0125, "ARG_OF_PERICENTER": 279.4726, "MEAN_ANOMALY": 80.58, "EPHEMERIS_TYPE": 0, "CLASSIFICATION_TYPE": "U", "NORAD_CAT_ID": 58661, "ELEMENT_SET_NO": 999, "REV_AT_EPOCH": 10840, "BSTAR": 0.00048497, "MEAN_MOTION_DOT": 0.00013578, "MEAN_MOTION_DDOT": 0}, "tle": {"line1": "1 58661U 23208B   25343.52421809  .00013578  00000+0  48497-3 0  9997", "line2": "2 58661  97.4327  95.0125 0006321 279.4726  80.5800 15.28947595108400"}}, "geometry": {"type": "Point", "coordinates": [131.99849239390682, -77.70661431517978]}}]}